[{"OBJECT_NAME":"ONEWEB-0279","OBJECT_ID":"2021-060AG","EPOCH":"2025-10-30T03:43:08.855040","MEAN_MOTION":13.16592989,"ECCENTRICITY":0.00018828,"INCLINATION":87.9001,"RA_OF_ASC_NODE":274.5866,"ARG_OF_PERICENTER":94.8285,"MEAN_ANOMALY":265.3061,"EPHEMERIS_TYPE":0,"CLASSIFICATION_TYPE":"U","NORAD_CAT_ID":48997,"ELEMENT_SET_NO":999,"REV_AT_EPOCH":20935,"BSTAR":-8.0884713e-5,"MEAN_MOTION_DOT":-1.8e-7,"MEAN_MOTION_DDOT":0},{"OBJECT_NAME":"ONEWEB-0280","OBJECT_ID":"2021-060AH","EPOCH":"2025-10-30T04:04:49.920672","MEAN_MOTION":13.16594804,"ECCENTRICITY":0.00022903,"INCLINATION":87.8992,"RA_OF_ASC_NODE":274.5911,"ARG_OF_PERICENTER":84.2065,"MEAN_ANOMALY":275.9327,"EPHEMERIS_TYPE":0,"CLASSIFICATION_TYPE":"U","NORAD_CAT_ID":48998,"ELEMENT_SET_NO":999,"REV_AT_EPOCH":20929,"BSTAR":-4.1477119e-5,"MEAN_MOTION_DOT":-3.0e-8,"MEAN_MOTION_DDOT":0},{"OBJECT_NAME":"ONEWEB-0281","OBJECT_ID":"2021-060AJ","EPOCH":"2025-10-30T04:12:47.180448","MEAN_MOTION":13.16592917,"ECCENTRICITY":0.00018096,"INCLINATION":87.8989,"RA_OF_ASC_NODE":274.5859,"ARG_OF_PERICENTER":85.0718,"MEAN_ANOMALY":275.062,"EPHEMERIS_TYPE":0,"CLASSIFICATION_TYPE":"U","NORAD_CAT_ID":48999,"ELEMENT_SET_NO":999,"REV_AT_EPOCH":20936,"BSTAR":4.862752e-6,"MEAN_MOTION_DOT":1.5e-7,"MEAN_MOTION_DDOT":0},{"OBJECT_NAME":"ONEWEB-0282","OBJECT_ID":"2021-060AK","EPOCH":"2025-10-30T06:45:33.468768","MEAN_MOTION":13.16594303,"ECCENTRICITY":0.00020363,"INCLINATION":87.899,"RA_OF_ASC_NODE":274.5753,"ARG_OF_PERICENTER":88.0155,"MEAN_ANOMALY":272.1209,"EPHEMERIS_TYPE":0,"CLASSIFICATION_TYPE":"U","NORAD_CAT_ID":49000,"ELEMENT_SET_NO":999,"REV_AT_EPOCH":20935,"BSTAR":0.00021707225,"MEAN_MOTION_DOT":9.6e-7,"MEAN_MOTION_DDOT":0},{"OBJECT_NAME":"ONEWEB-0283","OBJECT_ID":"2021-060AL","EPOCH":"2025-10-30T04:40:08.793408","MEAN_MOTION":13.16592781,"ECCENTRICITY":0.00019241,"INCLINATION":87.8989,"RA_OF_ASC_NODE":274.5936,"ARG_OF_PERICENTER":90.2268,"MEAN_ANOMALY":269.9083,"EPHEMERIS_TYPE":0,"CLASSIFICATION_TYPE":"U","NORAD_CAT_ID":49001,"ELEMENT_SET_NO":999,"REV_AT_EPOCH":20935,"BSTAR":3.1610562e-5,"MEAN_MOTION_DOT":2.5e-7,"MEAN_MOTION_DDOT":0},{"OBJECT_NAME":"ONEWEB-0284","OBJECT_ID":"2021-060AM","EPOCH":"2025-10-29T23:02:44.068128","MEAN_MOTION":13.16593591,"ECCENTRICITY":0.00022521,"INCLINATION":87.8997,"RA_OF_ASC_NODE":274.6262,"ARG_OF_PERICENTER":80.6231,"MEAN_ANOMALY":279.5154,"EPHEMERIS_TYPE":0,"CLASSIFICATION_TYPE":"U","NORAD_CAT_ID":49002,"ELEMENT_SET_NO":999,"REV_AT_EPOCH":20930,"BSTAR":-4.9628318e-5,"MEAN_MOTION_DOT":-6.0e-8,"MEAN_MOTION_DDOT":0},{"OBJECT_NAME":"ONEWEB-0285","OBJECT_ID":"2021-075A","EPOCH":"2025-10-30T06:45:20.127744","MEAN_MOTION":13.12443183,"ECCENTRICITY":0.00017809,"INCLINATION":87.8973,"RA_OF_ASC_NODE":36.3305,"ARG_OF_PERICENTER":102.0965,"MEAN_ANOMALY":258.0363,"EPHEMERIS_TYPE":0,"CLASSIFICATION_TYPE":"U","NORAD_CAT_ID":49075,"ELEMENT_SET_NO":999,"REV_AT_EPOCH":20505,"BSTAR":-0.00079582776,"MEAN_MOTION_DOT":-2.74e-6,"MEAN_MOTION_DDOT":0},{"OBJECT_NAME":"ONEWEB-0286","OBJECT_ID":"2021-075B","EPOCH":"2025-10-30T04:29:29.981184","MEAN_MOTION":13.12441914,"ECCENTRICITY":0.00015973,"INCLINATION":87.8965,"RA_OF_ASC_NODE":36.3843,"ARG_OF_PERICENTER":98.5214,"MEAN_ANOMALY":261.6095,"EPHEMERIS_TYPE":0,"CLASSIFICATION_TYPE":"U","NORAD_CAT_ID":49076,"ELEMENT_SET_NO":999,"REV_AT_EPOCH":20439,"BSTAR":0.00073676395,"MEAN_MOTION_DOT":2.78e-6,"MEAN_MOTION_DDOT":0},{"OBJECT_NAME":"ONEWEB-0287","OBJECT_ID":"2021-075C","EPOCH":"2025-10-30T07:23:19.257792","MEAN_MOTION":13.17647618,"ECCENTRICITY":0.00014825,"INCLINATION":87.9134,"RA_OF_ASC_NODE":51.5755,"ARG_OF_PERICENTER":87.0302,"MEAN_ANOMALY":273.0999,"EPHEMERIS_TYPE":0,"CLASSIFICATION_TYPE":"U","NORAD_CAT_ID":49077,"ELEMENT_SET_NO":999,"REV_AT_EPOCH":20335,"BSTAR":0.00029994212,"MEAN_MOTION_DOT":1.29e-6,"MEAN_MOTION_DDOT":0},{"OBJECT_NAME":"ONEWEB-0288","OBJECT_ID":"2021-075D","EPOCH":"2025-10-30T05:44:23.892288","MEAN_MOTION":13.12443602,"ECCENTRICITY":0.00018363,"INCLINATION":87.8972,"RA_OF_ASC_NODE":36.3338,"ARG_OF_PERICENTER":96.8884,"MEAN_ANOMALY":263.2454,"EPHEMERIS_TYPE":0,"CLASSIFICATION_TYPE":"U","NORAD_CAT_ID":49078,"ELEMENT_SET_NO":999,"REV_AT_EPOCH":20502,"BSTAR":-5.8645739e-5,"MEAN_MOTION_DOT":-8.0e-8,"MEAN_MOTION_DDOT":0},{"OBJECT_NAME":"ONEWEB-0289","OBJECT_ID":"2021-075E","EPOCH":"2025-10-30T06:29:41.468640","MEAN_MOTION":13.17648777,"ECCENTRICITY":0.00021093,"INCLINATION":87.9117,"RA_OF_ASC_NODE":51.6026,"ARG_OF_PERICENTER":96.0324,"MEAN_ANOMALY":264.1048,"EPHEMERIS_TYPE":0,"CLASSIFICATION_TYPE":"U","NORAD_CAT_ID":49079,"ELEMENT_SET_NO":999,"REV_AT_EPOCH":20392,"BSTAR":0.00016433571,"MEAN_MOTION_DOT":7.7e-7,"MEAN_MOTION_DDOT":0},{"OBJECT_NAME":"ONEWEB-0290","OBJECT_ID":"2021-075F","EPOCH":"2025-10-30T07:40:21.304128","MEAN_MOTION":13.17649937,"ECCENTRICITY":0.00023462,"INCLINATION":87.9132,"RA_OF_ASC_NODE":51.5514,"ARG_OF_PERICENTER":102.307,"MEAN_ANOMALY":257.8324,"EPHEMERIS_TYPE":0,"CLASSIFICATION_TYPE":"U","NORAD_CAT_ID":49080,"ELEMENT_SET_NO":999,"REV_AT_EPOCH":20334,"BSTAR":0.00032237716,"MEAN_MOTION_DOT":1.38e-6,"MEAN_MOTION_DDOT":0},{"OBJECT_NAME":"ONEWEB-0291","OBJECT_ID":"2021-075G","EPOCH":"2025-10-30T07:18:29.128320","MEAN_MOTION":13.17650382,"ECCENTRICITY":0.00017808,"INCLINATION":87.9131,"RA_OF_ASC_NODE":51.5603,"ARG_OF_PERICENTER":88.8529,"MEAN_ANOMALY":271.2807,"EPHEMERIS_TYPE":0,"CLASSIFICATION_TYPE":"U","NORAD_CAT_ID":49081,"ELEMENT_SET_NO":999,"REV_AT_EPOCH":20333,"BSTAR":0.0002099151,"MEAN_MOTION_DOT":9.4e-7,"MEAN_MOTION_DDOT":0},{"OBJECT_NAME":"ONEWEB-0293","OBJECT_ID":"2021-075H","EPOCH":"2025-10-30T06:05:34.895904","MEAN_MOTION":13.17650651,"ECCENTRICITY":0.0001783,"INCLINATION":87.9128,"RA_OF_ASC_NODE":51.5955,"ARG_OF_PERICENTER":99.2946,"MEAN_ANOMALY":260.8387,"EPHEMERIS_TYPE":0,"CLASSIFICATION_TYPE":"U","NORAD_CAT_ID":49082,"ELEMENT_SET_NO":999,"REV_AT_EPOCH":20335,"BSTAR":0.00027873039,"MEAN_MOTION_DOT":1.21e-6,"MEAN_MOTION_DDOT":0},{"OBJECT_NAME":"ONEWEB-0294","OBJECT_ID":"2021-075J","EPOCH":"2025-10-30T05:53:45.328992","MEAN_MOTION":13.12445365,"ECCENTRICITY":0.00021919,"INCLINATION":87.8977,"RA_OF_ASC_NODE":36.3331,"ARG_OF_PERICENTER":95.0102,"MEAN_ANOMALY":265.1277,"EPHEMERIS_TYPE":0,"CLASSIFICATION_TYPE":"U","NORAD_CAT_ID":49083,"ELEMENT_SET_NO":999,"REV_AT_EPOCH":20441,"BSTAR":0.0011515597,"MEAN_MOTION_DOT":4.27e-6,"MEAN_MOTION_DDOT":0},{"OBJECT_NAME":"ONEWEB-0295","OBJECT_ID":"2021-075K","EPOCH":"2025-10-30T06:04:21.409248","MEAN_MOTION":13.17647556,"ECCENTRICITY":0.0001687,"INCLINATION":87.9117,"RA_OF_ASC_NODE":51.5997,"ARG_OF_PERICENTER":87.8015,"MEAN_ANOMALY":272.331,"EPHEMERIS_TYPE":0,"CLASSIFICATION_TYPE":"U","NORAD_CAT_ID":49084,"ELEMENT_SET_NO":999,"REV_AT_EPOCH":20331,"BSTAR":2.624192e-5,"MEAN_MOTION_DOT":2.3e-7,"MEAN_MOTION_DDOT":0},{"OBJECT_NAME":"ONEWEB-0296","OBJECT_ID":"2021-075L","EPOCH":"2025-10-30T07:15:31.222080","MEAN_MOTION":13.12442399,"ECCENTRICITY":0.00019018,"INCLINATION":87.8971,"RA_OF_ASC_NODE":36.3271,"ARG_OF_PERICENTER":87.6113,"MEAN_ANOMALY":272.5234,"EPHEMERIS_TYPE":0,"CLASSIFICATION_TYPE":"U","NORAD_CAT_ID":49085,"ELEMENT_SET_NO":999,"REV_AT_EPOCH":20442,"BSTAR":4.325208e-5,"MEAN_MOTION_DOT":2.8e-7,"MEAN_MOTION_DDOT":0}]
