ONEWEB-0279             
1 48997U 21060AG  25303.15496360 -.00000018  00000+0 -80885-4 0  9996
2 48997  87.9001 274.5866 0001882  94.8285 265.3061 13.16592989209352
ONEWEB-0280             
1 48998U 21060AH  25303.17002223 -.00000003  00000+0 -41477-4 0  9998
2 48998  87.8992 274.5911 0002290  84.2065 275.9327 13.16594804209298
ONEWEB-0281             
1 48999U 21060AJ  25303.17554607  .00000015  00000+0  48628-5 0  9994
2 48999  87.8989 274.5859 0001809  85.0718 275.0620 13.16592917209363
ONEWEB-0282             
1 49000U 21060AK  25303.28163737  .00000096  00000+0  21707-3 0  9996
2 49000  87.8990 274.5753 0002036  88.0155 272.1209 13.16594303209354
ONEWEB-0283             
1 49001U 21060AL  25303.19454622  .00000025  00000+0  31611-4 0  9991
2 49001  87.8989 274.5936 0001924  90.2268 269.9083 13.16592781209353
ONEWEB-0284             
1 49002U 21060AM  25302.96023227 -.00000006  00000+0 -49628-4 0  9997
2 49002  87.8997 274.6262 0002252  80.6231 279.5154 13.16593591209305
ONEWEB-0285             
1 49075U 21075A   25303.28148296 -.00000274  00000+0 -79583-3 0  9992
2 49075  87.8973  36.3305 0001780 102.0965 258.0363 13.12443183205057
ONEWEB-0286             
1 49076U 21075B   25303.18715256  .00000278  00000+0  73676-3 0  9997
2 49076  87.8965  36.3843 0001597  98.5214 261.6095 13.12441914204396
ONEWEB-0287             
1 49077U 21075C   25303.30786178  .00000129  00000+0  29994-3 0  9992
2 49077  87.9134  51.5755 0001482  87.0302 273.0999 13.17647618203350
ONEWEB-0288             
1 49078U 21075D   25303.23916542 -.00000008  00000+0 -58646-4 0  9990
2 49078  87.8972  36.3338 0001836  96.8884 263.2454 13.12443602205029
ONEWEB-0289             
1 49079U 21075E   25303.27061885  .00000077  00000+0  16434-3 0  9998
2 49079  87.9117  51.6026 0002109  96.0324 264.1048 13.17648777203922
ONEWEB-0290             
1 49080U 21075F   25303.31969102  .00000138  00000+0  32238-3 0  9992
2 49080  87.9132  51.5514 0002346 102.3070 257.8324 13.17649937203345
ONEWEB-0291             
1 49081U 21075G   25303.30450380  .00000094  00000+0  20992-3 0  9990
2 49081  87.9131  51.5603 0001780  88.8529 271.2807 13.17650382203333
ONEWEB-0293             
1 49082U 21075H   25303.25387611  .00000121  00000+0  27873-3 0  9997
2 49082  87.9128  51.5955 0001783  99.2946 260.8387 13.17650651203350
ONEWEB-0294             
1 49083U 21075J   25303.24566353  .00000427  00000+0  11516-2 0  9994
2 49083  87.8977  36.3331 0002191  95.0102 265.1277 13.12445365204416
ONEWEB-0295             
1 49084U 21075K   25303.25302557  .00000023  00000+0  26242-4 0  9996
2 49084  87.9117  51.5997 0001687  87.8015 272.3310 13.17647556203319
ONEWEB-0296             
1 49085U 21075L   25303.30244470  .00000028  00000+0  43252-4 0  9997
2 49085  87.8971  36.3271 0001901  87.6113 272.5234 13.12442399204422
